start=new Date('2023-01-17T00:00:00.000Z').valueOf();
sats=[{"LAUNCH_DATE":"2022-03-03","COUNTRY_CODE":"US","FILE":"3750956","GP_ID":"223253562","APOAPSIS":"540.987","SEMIMAJOR_AXIS":"6917.810","PERIOD":"95.436","RA_OF_ASC_NODE":"112.9733","MEAN_ELEMENT_THEORY":"SGP4","TLE_LINE2":"2 51883  53.2157 112.9733 0001896  51.7945 308.3217 15.08862928 49928","MEAN_MOTION_DDOT":"0.0000000000000","INCLINATION":"53.2157","ARG_OF_PERICENTER":"51.7945","CENTER_NAME":"EARTH","REF_FRAME":"TEME","EPHEMERIS_TYPE":"0","RCS_SIZE":"LARGE","SITE":"AFETR","NORAD_CAT_ID":"51883","MEAN_MOTION":"15.08862928","PERIAPSIS":"538.364","OBJECT_ID":"2022-022AH","OBJECT_NAME":"STARLINK-3576","EPOCH":"2023-01-16T15:04:17.948928","MEAN_ANOMALY":"308.3217","CLASSIFICATION_TYPE":"U","REV_AT_EPOCH":"4992","ECCENTRICITY":"0.00018960","OBJECT_TYPE":"PAYLOAD","DECAY_DATE":null,"TIME_SYSTEM":"UTC","BSTAR":"0.00038844000000","MEAN_MOTION_DOT":"0.00005903","TLE_LINE1":"1 51883U 22022AH  23016.62798552  .00005903  00000-0  38844-3 0  9996","ELEMENT_SET_NO":"999"},{"EPHEMERIS_TYPE":"0","REF_FRAME":"TEME","CENTER_NAME":"EARTH","MEAN_MOTION":"15.08858006","NORAD_CAT_ID":"51884","SITE":"AFETR","RCS_SIZE":"LARGE","SEMIMAJOR_AXIS":"6917.825","APOAPSIS":"540.603","FILE":"3750956","GP_ID":"223253316","COUNTRY_CODE":"US","LAUNCH_DATE":"2022-03-03","ARG_OF_PERICENTER":"75.5420","TLE_LINE2":"2 51884  53.2168 112.9258 0001319  75.5420 284.5718 15.08858006 50010","MEAN_MOTION_DDOT":"0.0000000000000","INCLINATION":"53.2168","MEAN_ELEMENT_THEORY":"SGP4","RA_OF_ASC_NODE":"112.9258","PERIOD":"95.436","BSTAR":"0.00022062000000","TIME_SYSTEM":"UTC","OBJECT_TYPE":"PAYLOAD","DECAY_DATE":null,"ELEMENT_SET_NO":"999","TLE_LINE1":"1 51884U 22022AJ  23016.63806792  .00003227  00000-0  22062-3 0  9996","MEAN_MOTION_DOT":"0.00003227","EPOCH":"2023-01-16T15:18:49.068288","MEAN_ANOMALY":"284.5718","OBJECT_NAME":"STARLINK-3577","PERIAPSIS":"538.778","OBJECT_ID":"2022-022AJ","ECCENTRICITY":"0.00013190","REV_AT_EPOCH":"5001","CLASSIFICATION_TYPE":"U"},{"APOAPSIS":"541.099","SEMIMAJOR_AXIS":"6917.768","LAUNCH_DATE":"2022-03-03","COUNTRY_CODE":"US","GP_ID":"223252565","FILE":"3750956","TLE_LINE2":"2 51885  53.2159 113.0029 0002120  56.4038 303.7156 15.08876866 49925","MEAN_MOTION_DDOT":"0.0000000000000","ARG_OF_PERICENTER":"56.4038","INCLINATION":"53.2159","PERIOD":"95.435","RA_OF_ASC_NODE":"113.0029","MEAN_ELEMENT_THEORY":"SGP4","EPHEMERIS_TYPE":"0","CENTER_NAME":"EARTH","REF_FRAME":"TEME","NORAD_CAT_ID":"51885","MEAN_MOTION":"15.08876866","RCS_SIZE":"LARGE","SITE":"AFETR","OBJECT_NAME":"STARLINK-3584","MEAN_ANOMALY":"303.7156","EPOCH":"2023-01-16T14:57:37.948896","PERIAPSIS":"538.166","OBJECT_ID":"2022-022AK","REV_AT_EPOCH":"4992","ECCENTRICITY":"0.00021200","CLASSIFICATION_TYPE":"U","BSTAR":"0.00135890000000","OBJECT_TYPE":"PAYLOAD","DECAY_DATE":null,"TIME_SYSTEM":"UTC","TLE_LINE1":"1 51885U 22022AK  23016.62335589  .00021427  00000-0  13589-2 0  9992","MEAN_MOTION_DOT":"0.00021427","ELEMENT_SET_NO":"999"},{"CENTER_NAME":"EARTH","REF_FRAME":"TEME","EPHEMERIS_TYPE":"0","SITE":"AFETR","RCS_SIZE":"LARGE","MEAN_MOTION":"15.08852244","NORAD_CAT_ID":"51886","COUNTRY_CODE":"US","FILE":"3750956","GP_ID":"223252815","LAUNCH_DATE":"2022-03-03","APOAPSIS":"540.911","SEMIMAJOR_AXIS":"6917.843","RA_OF_ASC_NODE":"112.9661","MEAN_ELEMENT_THEORY":"SGP4","PERIOD":"95.437","TLE_LINE2":"2 51886  53.2150 112.9661 0001739  94.4357 265.6834 15.08852244 49932","MEAN_MOTION_DDOT":"0.0000000000000","ARG_OF_PERICENTER":"94.4357","INCLINATION":"53.2150","TIME_SYSTEM":"UTC","DECAY_DATE":null,"OBJECT_TYPE":"PAYLOAD","BSTAR":"0.00015839000000","TLE_LINE1":"1 51886U 22022AL  23016.63071276  .00002234  00000-0  15839-3 0  9990","MEAN_MOTION_DOT":"0.00002234","ELEMENT_SET_NO":"999","OBJECT_ID":"2022-022AL","PERIAPSIS":"538.505","OBJECT_NAME":"STARLINK-3565","EPOCH":"2023-01-16T15:08:13.582464","MEAN_ANOMALY":"265.6834","CLASSIFICATION_TYPE":"U","ECCENTRICITY":"0.00017390","REV_AT_EPOCH":"4993"},{"TLE_LINE1":"1 51887U 22022AM  23016.68591409  .00022223  00000-0  14083-2 0  9990","MEAN_MOTION_DOT":"0.00022223","ELEMENT_SET_NO":"999","BSTAR":"0.00140830000000","DECAY_DATE":null,"OBJECT_TYPE":"PAYLOAD","TIME_SYSTEM":"UTC","ECCENTRICITY":"0.00014890","REV_AT_EPOCH":"4993","CLASSIFICATION_TYPE":"U","OBJECT_NAME":"STARLINK-3551","EPOCH":"2023-01-16T16:27:42.977376","MEAN_ANOMALY":"265.3350","PERIAPSIS":"538.583","OBJECT_ID":"2022-022AM","NORAD_CAT_ID":"51887","MEAN_MOTION":"15.08883383","RCS_SIZE":"LARGE","SITE":"AFETR","EPHEMERIS_TYPE":"0","CENTER_NAME":"EARTH","REF_FRAME":"TEME","TLE_LINE2":"2 51887  53.2155 112.7161 0001489  94.7813 265.3350 15.08883383 49931","ARG_OF_PERICENTER":"94.7813","MEAN_MOTION_DDOT":"0.0000000000000","INCLINATION":"53.2155","PERIOD":"95.435","RA_OF_ASC_NODE":"112.7161","MEAN_ELEMENT_THEORY":"SGP4","APOAPSIS":"540.643","SEMIMAJOR_AXIS":"6917.748","LAUNCH_DATE":"2022-03-03","COUNTRY_CODE":"US","FILE":"3750956","GP_ID":"223253062"},{"MEAN_MOTION":"15.08862762","NORAD_CAT_ID":"51888","SITE":"AFETR","RCS_SIZE":"LARGE","EPHEMERIS_TYPE":"0","REF_FRAME":"TEME","CENTER_NAME":"EARTH","MEAN_MOTION_DDOT":"0.0000000000000","TLE_LINE2":"2 51888  53.2158 112.6775 0001656  72.3696 287.7477 15.08862762 49949","ARG_OF_PERICENTER":"72.3696","INCLINATION":"53.2158","MEAN_ELEMENT_THEORY":"SGP4","RA_OF_ASC_NODE":"112.6775","PERIOD":"95.436","SEMIMAJOR_AXIS":"6917.811","APOAPSIS":"540.821","FILE":"3750956","GP_ID":"223253817","COUNTRY_CODE":"US","LAUNCH_DATE":"2022-03-03","ELEMENT_SET_NO":"999","TLE_LINE1":"1 51888U 22022AN  23016.69326875  .00003544  00000-0  24049-3 0  9994","MEAN_MOTION_DOT":"0.00003544","BSTAR":"0.00024049000000","TIME_SYSTEM":"UTC","DECAY_DATE":null,"OBJECT_TYPE":"PAYLOAD","ECCENTRICITY":"0.00016560","REV_AT_EPOCH":"4994","CLASSIFICATION_TYPE":"U","MEAN_ANOMALY":"287.7477","EPOCH":"2023-01-16T16:38:18.420000","OBJECT_NAME":"STARLINK-3536","OBJECT_ID":"2022-022AN","PERIAPSIS":"538.530"},{"EPHEMERIS_TYPE":"0","REF_FRAME":"TEME","CENTER_NAME":"EARTH","MEAN_MOTION":"15.08854238","NORAD_CAT_ID":"51889","SITE":"AFETR","RCS_SIZE":"LARGE","SEMIMAJOR_AXIS":"6917.837","APOAPSIS":"541.171","GP_ID":"223220359","FILE":"3750424","COUNTRY_CODE":"US","LAUNCH_DATE":"2022-03-03","TLE_LINE2":"2 51889  53.2133 113.3636 0002124  90.9472 269.1763 15.08854238 49914","INCLINATION":"53.2133","MEAN_MOTION_DDOT":"0.0000000000000","ARG_OF_PERICENTER":"90.9472","MEAN_ELEMENT_THEORY":"SGP4","RA_OF_ASC_NODE":"113.3636","PERIOD":"95.437","BSTAR":"0.00029203000000","TIME_SYSTEM":"UTC","DECAY_DATE":null,"OBJECT_TYPE":"PAYLOAD","ELEMENT_SET_NO":"999","MEAN_MOTION_DOT":"0.00004364","TLE_LINE1":"1 51889U 22022AP  23016.54239818  .00004364  00000-0  29203-3 0  9997","EPOCH":"2023-01-16T13:01:03.202752","MEAN_ANOMALY":"269.1763","OBJECT_NAME":"STARLINK-3547","OBJECT_ID":"2022-022AP","PERIAPSIS":"538.233","REV_AT_EPOCH":"4991","ECCENTRICITY":"0.00021240","CLASSIFICATION_TYPE":"U"},{"GP_ID":"223252315","FILE":"3750956","COUNTRY_CODE":"US","LAUNCH_DATE":"2022-03-03","SEMIMAJOR_AXIS":"6917.758","APOAPSIS":"540.625","MEAN_ELEMENT_THEORY":"SGP4","RA_OF_ASC_NODE":"112.7373","PERIOD":"95.435","TLE_LINE2":"2 51890  53.2140 112.7373 0001449  75.6662 284.4491 15.08880092 49932","ARG_OF_PERICENTER":"75.6662","MEAN_MOTION_DDOT":"0.0000000000000","INCLINATION":"53.2140","REF_FRAME":"TEME","CENTER_NAME":"EARTH","EPHEMERIS_TYPE":"0","SITE":"AFETR","RCS_SIZE":"LARGE","MEAN_MOTION":"15.08880092","NORAD_CAT_ID":"51890","PERIAPSIS":"538.620","OBJECT_ID":"2022-022AQ","EPOCH":"2023-01-16T16:22:25.288896","MEAN_ANOMALY":"284.4491","OBJECT_NAME":"STARLINK-3519","CLASSIFICATION_TYPE":"U","REV_AT_EPOCH":"4993","ECCENTRICITY":"0.00014490","TIME_SYSTEM":"UTC","OBJECT_TYPE":"PAYLOAD","DECAY_DATE":null,"BSTAR":"0.00189820000000","ELEMENT_SET_NO":"999","TLE_LINE1":"1 51890U 22022AQ  23016.68223714  .00030084  00000-0  18982-2 0  9991","MEAN_MOTION_DOT":"0.00030084"},{"REV_AT_EPOCH":"4996","ECCENTRICITY":"0.00016510","CLASSIFICATION_TYPE":"U","OBJECT_NAME":"STARLINK-3549","EPOCH":"2023-01-16T12:55:44.959584","MEAN_ANOMALY":"264.0271","PERIAPSIS":"538.577","OBJECT_ID":"2022-022AR","MEAN_MOTION_DOT":"0.00002882","TLE_LINE1":"1 51891U 22022AR  23016.53871481  .00002882  00000-0  19905-3 0  9998","ELEMENT_SET_NO":"999","BSTAR":"0.00019905000000","TIME_SYSTEM":"UTC","OBJECT_TYPE":"PAYLOAD","DECAY_DATE":null,"TLE_LINE2":"2 51891  53.2157 113.3788 0001651  96.0909 264.0271 15.08848565 49966","MEAN_MOTION_DDOT":"0.0000000000000","INCLINATION":"53.2157","ARG_OF_PERICENTER":"96.0909","RA_OF_ASC_NODE":"113.3788","MEAN_ELEMENT_THEORY":"SGP4","PERIOD":"95.437","APOAPSIS":"540.861","SEMIMAJOR_AXIS":"6917.854","COUNTRY_CODE":"US","GP_ID":"223220036","FILE":"3750425","LAUNCH_DATE":"2022-03-03","MEAN_MOTION":"15.08848565","NORAD_CAT_ID":"51891","SITE":"AFETR","RCS_SIZE":"LARGE","EPHEMERIS_TYPE":"0","CENTER_NAME":"EARTH","REF_FRAME":"TEME"},{"INCLINATION":"53.2133","TLE_LINE2":"2 51892  53.2133 112.7589 0001934  61.3595 298.7591 15.08870234 49937","MEAN_MOTION_DDOT":"0.0000000000000","ARG_OF_PERICENTER":"61.3595","RA_OF_ASC_NODE":"112.7589","MEAN_ELEMENT_THEORY":"SGP4","PERIOD":"95.436","APOAPSIS":"540.991","SEMIMAJOR_AXIS":"6917.788","COUNTRY_CODE":"US","FILE":"3750956","GP_ID":"223253317","LAUNCH_DATE":"2022-03-03","MEAN_MOTION":"15.08870234","NORAD_CAT_ID":"51892","SITE":"AFETR","RCS_SIZE":"LARGE","EPHEMERIS_TYPE":"0","CENTER_NAME":"EARTH","REF_FRAME":"TEME","ECCENTRICITY":"0.00019340","REV_AT_EPOCH":"4993","CLASSIFICATION_TYPE":"U","OBJECT_NAME":"STARLINK-3587","MEAN_ANOMALY":"298.7591","EPOCH":"2023-01-16T16:17:07.507104","OBJECT_ID":"2022-022AS","PERIAPSIS":"538.315","MEAN_MOTION_DOT":"0.00017750","TLE_LINE1":"1 51892U 22022AS  23016.67855911  .00017750  00000-0  11296-2 0  9998","ELEMENT_SET_NO":"999","BSTAR":"0.00112960000000","TIME_SYSTEM":"UTC","DECAY_DATE":null,"OBJECT_TYPE":"PAYLOAD"}];
